IRIDIUM 155             
1 43573U 18061E   24040.53970243  .00000161  00000+0  50436-4 0  9990
2 43573  86.3924  55.5229 0001987  87.7634 272.3790 14.34217993290288
IRIDIUM 154             
1 43574U 18061F   24040.59044493  .00000109  00000+0  31802-4 0  9994
2 43574  86.3927  55.5932 0002408  88.5227 271.6245 14.34217999290349
IRIDIUM 163             
1 43575U 18061G   24040.57142283  .00000265  00000+0  87523-4 0  9993
2 43575  86.3926  55.5434 0002274  88.8765 271.2691 14.34217630290317
IRIDIUM 156             
1 43576U 18061H   24040.54603452 -.00000271  00000+0 -10400-3 0  9999
2 43576  86.3923  55.5602 0001984  95.1988 264.9434 14.34214179290305
IRIDIUM 164             
1 43577U 18061J   24040.59678611  .00000064  00000+0  15654-4 0  9999
2 43577  86.3926  55.5657 0002351  96.0380 264.1084 14.34217263290359
IRIDIUM 159             
1 43578U 18061K   24040.56507146  .00000165  00000+0  51986-4 0  9991
2 43578  86.3926  55.5340 0002291  88.2332 271.9126 14.34217119290311
IRIDIUM 180             
1 43922U 19002A   24040.42503239 -.00000185  00000+0 -73086-4 0  9993
2 43922  86.4006 352.4859 0002172  86.4608 273.6836 14.34216050265909
IRIDIUM 176             
1 43923U 19002B   24040.38699632  .00002424  00000+0  38051-3 0  9990
2 43923  86.6138 352.5301 0002352  88.9451 271.2036 14.72245927272893
IRIDIUM 168             
1 43924U 19002C   24040.34892111  .00000089  00000+0  24854-4 0  9996
2 43924  86.4012 352.5704 0002205  83.9346 276.2101 14.34218703265873
IRIDIUM 173             
1 43925U 19002D   24040.40600342  .00000279  00000+0  92411-4 0  9992
2 43925  86.4010 352.4710 0002201  84.1662 275.9784 14.34218272265861
IRIDIUM 169             
1 43926U 19002E   24040.44716653  .00000719  00000+0  22870-3 0  9990
2 43926  86.4229  24.0487 0001197 349.8000  10.3173 14.38611184266763
IRIDIUM 172             
1 43927U 19002F   24040.39965091  .00000565  00000+0  19465-3 0  9992
2 43927  86.4008 352.4788 0002231  86.0779 274.0672 14.34215021265874
IRIDIUM 175             
1 43928U 19002G   24040.31309949  .00002141  00000+0  33556-3 0  9998
2 43928  86.1550 333.0010 0002293  80.5633 279.5842 14.72238661272877
IRIDIUM 171             
1 43929U 19002H   24040.38063471  .00000033  00000+0  45812-5 0  9991
2 43929  86.4019 352.6976 0002210  89.3591 270.7858 14.34217350265869
IRIDIUM 170             
1 43930U 19002J   24040.39318573  .00002380  00000+0  37348-3 0  9990
2 43930  86.6157 352.5313 0005585  52.1977 307.9745 14.72240673272901
IRIDIUM 167             
1 43931U 19002K   24040.37429051  .00000527  00000+0  18110-3 0  9990
2 43931  86.4009 352.5042 0002248  89.2858 270.8596 14.34217252265861
IRIDIUM 181             
1 56726U 23068S   24040.52495539  .00000364  00000+0  10184-3 0  9996
2 56726  86.8609  39.9044 0002280 105.6051 254.5403 14.43576358 38576
IRIDIUM 177             
1 56727U 23068T   24040.44413174  .00003014  00000+0  39312-3 0  9992
2 56727  86.1986  16.4649 0002446  91.3772 268.7729 14.80226480 39336
IRIDIUM 174             
1 56728U 23068U   24040.43868919  .00002996  00000+0  39086-3 0  9999
2 56728  86.1994  16.5611 0002312  89.5147 270.6339 14.80227235 39331
IRIDIUM 178             
1 56729U 23068V   24040.50113943  .00002839  00000+0  36996-3 0  9991
2 56729  86.5788  27.8855 0007184  52.9131 307.2746 14.80240970 39342
IRIDIUM 179             
1 56730U 23068W   24040.49577679  .00002775  00000+0  36184-3 0  9999
2 56730  86.6783  30.4038 0002420  93.6251 266.5247 14.80230234 39341
